#dP2018  5 26  0  0  0.00000000      96 __u+U ITR00 FIT  IAC
## 2002 518400.00000000   900.00000000 58264 0.0000000000000
+   84   C02C03C04C05C06C07C08C09C10C11C12C13C14E01E02E03E04
+        E05E07E08E09E11E12E14E18E19E24E26E30G01G02G03G05G06
+        G07G08G09G10G11G12G13G14G15G16G17G18G19G20G21G22G23
+        G24G25G26G27G28G29G30G31G32J03R01R02R03R04R05R07R08
+        R09R10R11R13R14R15R16R17R18R19R20R21R22R23R24R26  0
++        12 12 13 12  9  9  9  9  8  8  9  8  8  7  6  6  7
++         6  6  6  6  6  7  7  6  7  6  6  6  4  3  3  3  3
++         3  3  3  4  4  3  4  4  4  3  3  4  3  4  4  3  3
++         4  4  3  4  4  3  3  3  3 11  6  6  5  5  6  6  6
++         5  6  5  5  5  5  5  5  5  5  5  5  5  5  6  8  0
%c M  cc GPS ccc cccc cccc cccc cccc ccccc ccccc ccccc ccccc
%c cc cc ccc ccc cccc cccc cccc cccc ccccc ccccc ccccc ccccc
%f  0.0000000  0.000000000  0.00000000000  0.000000000000000
%f  0.0000000  0.000000000  0.00000000000  0.000000000000000
%i    0    0    0    0      0      0      0      0         0
%i    0    0    0    0      0      0      0      0         0
/* INFORMATION & ANALYSIS CENTER (IAC) OF MCC   (RAPID DATA)
/* S/V CLOCKS ARE ALIGNED TO GPS & GLONASS TIME RESPECTIVELY
/* USING THE BROADCAST EPHEMERIS                            
/* PCV:IGS14_2000 OL/AL:FES2004  NONE     YN ORB:CoN CLK:CoN
*  2018 05 26  1  0  0.00000000
PC02   4373.685207  41916.166004  -1309.091928    409.614256
PC03 -14796.260254  39438.284516   -113.733388   -276.756685
PC04 -39626.137739  14414.794781     95.713969   -246.210644
PC05  21938.835129  35983.885512   -983.827641    404.337934
PC06 -17909.695709  37765.495280  -3723.090615     30.849322
PC07  -8739.950380  26685.844441  31669.097630    135.045449
PC08 -23962.474224  21107.353410 -27586.355966    357.801042
PC09  -8473.404535  39481.060535  11714.452852    -96.318099
PC10   6560.065371  34473.613753  23739.097790   -259.820676
PC11 -20828.381846  18204.035718  -3897.164990   -522.944306
PC12 -23448.418327   5560.327716  14197.850137    455.165184
PC13  -8725.707352  24313.473144 -33354.316124   -347.600790
PC14 -11047.996875  17607.338413 -18529.686209    361.347467
PE01  18573.543939  22503.458716   4998.720777   -353.254909
PE02 -18580.309161 -22499.016552  -4988.200567     14.509401
PE03  -7744.560539 -22013.126097 -18194.566642    -36.223729
PE04  17090.512045   2300.877214  24070.728294    -41.772513
PE05   6177.217212 -28902.902237  -1633.459449    258.338127
PE07 -16425.903546  18872.179746 -15807.222835     26.627705
PE08 -16960.062311  -2109.439661 -24156.292741   6577.307201
PE09  16183.583564 -18981.861920  15941.817493   6781.621653
PE11  25221.466146 -13157.361837   8225.140544    351.718523
PE12  27496.699484   -381.891692 -10981.647500   4238.352693
PE14   2282.460445  22847.756620 -20631.805585   6577.180995
PE18   9355.827185 -22199.755362  10062.931487   6181.145916
PE19   6525.197478  23296.335538  17062.288927     22.597192
PE24  15222.578552  -7408.114325 -24293.943450   6687.376353
PE26  -8577.361237  17930.561552 -21930.149989   5896.068697
PE30 -23917.844584 -10745.230640  13724.802156   5810.890693
PG01  17023.188488  13424.149489 -15695.347676    -50.768686
PG02   6611.632943 -14851.313835  21532.180274    104.722411
PG03  13315.070586  22224.070924   5983.881157     77.334184
PG05    135.233034 -23163.975189  12701.468082     -7.281986
PG06  20633.012404  -7432.982167  15034.174802    400.930132
PG07  26090.935670   5850.163873   2195.210519    185.887157
PG08    130.901523  19705.445829 -17686.224269   -102.535853
PG09  16972.371674   1654.378818  20336.113662    514.252354
PG10 -14384.456085   4946.805413 -21730.802339    186.304865
PG11  12442.366159  12885.525622 -20132.636468   -735.527851
PG12  -9893.809084 -24591.479802   2700.751930    331.464446
PG13   9467.579352 -21512.170707 -12480.524028    -94.137331
PG14 -17956.131272  19434.664158     14.394614    -97.090301
PG15  -3589.064442 -19124.066086 -18125.685166   -353.683325
PG16  -2274.836101  22589.798742  13266.206882     23.624294
PG17  20366.999200 -14044.318571  -9104.959842    -94.543675
PG18   8250.731373  15534.309174 -20410.226244     13.633495
PG19  19563.349327 -17983.462571  -2424.867242   -433.529533
PG20 -18858.560779 -10155.306481 -15904.925890    509.023913
PG21 -26418.271301  -2438.559327   -149.223552   -390.220770
PG22   9583.543583  24646.257538  -2321.274241   -404.197382
PG23   8843.748216  13698.501000  21192.364359   -216.669886
PG24 -13830.776130 -14415.583352 -17756.437453    -50.242776
PG25 -16429.205054 -15172.301277  14325.530612   -590.827612
PG26  -8698.196398  15393.627068  19767.325364   -137.068784
PG27 -10814.858597  22712.272076  -8174.076455    368.143832
PG28  14677.340043   -667.017443 -21504.824429    718.316763
PG29 -14755.223030  -4939.462929  21500.435183    443.722519
PG30  25500.670703   -600.371490  -7696.539433     70.006767
PG31 -19786.324086   7894.754698  16157.802759    119.099045
PG32 -20031.515729  14043.954589 -10196.664915   -504.320162
PJ03 -32632.154000  25951.441089  11228.204874    -14.529322
PR01 -11078.996604   6380.370943 -22066.639022     26.737635
PR02  -6008.235310  23041.421616  -9037.474339    311.569804
PR03   2368.763532  23905.635966   8564.733876    133.196466
PR04   9459.979795  10365.769345  21319.707666    262.312180
PR05  10898.926457  -8443.032021  21458.084653    -14.194751
PR07  -2481.292701 -23805.395547  -8829.341825    -38.468658
PR08  -9230.477915 -11080.684776 -20982.722499     23.017034
PR09   3511.102736 -10940.486396 -22758.433557     26.362899
PR10 -12555.264557 -16843.415336 -14431.452306     25.023964
PR11 -21605.054369 -13167.756010   3052.155050    -29.694555
PR13  -2975.566092  10887.222255  22853.549327    -10.767620
PR14  12462.913192  16925.963003  14470.463271     27.578711
PR15  20627.927132  14884.818921    991.170218    -10.747446
PR16  18187.578581   1914.821276 -17754.828744     93.399764
PR17      8.205454  11605.427614 -22711.059896    135.200293
PR18  16107.609465   2259.394783 -19662.103557    196.912560
PR19  23600.309879  -7942.517486  -5547.997343    -53.296887
PR20  16841.738273 -14068.477894  13056.908559   -339.281490
PR21   -374.724574 -11385.876036  22819.871450     14.845132
PR22 -17395.558493  -1087.147856  18567.465327    -45.902925
PR23 -23310.634012  10207.953749   1680.440675    155.823121
PR24 -15821.061015  14444.238637 -13855.757638   -166.748878
PR26  17028.242455 -14344.727154  12440.077212     21.988923
EOF
